{
  "links" : {
    "next" : "https://api.nasa.gov/neo/rest/v1/feed?start_date=2001-10-09&end_date=2001-10-09&detailed=true&api_key=t0TVs3DtDT2H8Oy2Zy8m2eVrNsAVKAexjcZXUckd",
    "prev" : "https://api.nasa.gov/neo/rest/v1/feed?start_date=2001-10-07&end_date=2001-10-07&detailed=true&api_key=t0TVs3DtDT2H8Oy2Zy8m2eVrNsAVKAexjcZXUckd",
    "self" : "https://api.nasa.gov/neo/rest/v1/feed?start_date=2001-10-08&end_date=2001-10-08&detailed=true&api_key=t0TVs3DtDT2H8Oy2Zy8m2eVrNsAVKAexjcZXUckd"
  },
  "element_count" : 4,
  "near_earth_objects" : {
    "2001-10-08" : [ {
      "links" : {
        "self" : "https://api.nasa.gov/neo/rest/v1/neo/3092346?api_key=t0TVs3DtDT2H8Oy2Zy8m2eVrNsAVKAexjcZXUckd"
      },
      "neo_reference_id" : "3092346",
      "name" : "(2001 TB)",
      "nasa_jpl_url" : "http://ssd.jpl.nasa.gov/sbdb.cgi?sstr=3092346",
      "absolute_magnitude_h" : 24.4,
      "estimated_diameter" : {
        "kilometers" : {
          "estimated_diameter_min" : 0.0350392641,
          "estimated_diameter_max" : 0.0783501764
        },
        "meters" : {
          "estimated_diameter_min" : 35.0392641108,
          "estimated_diameter_max" : 78.3501764334
        },
        "miles" : {
          "estimated_diameter_min" : 0.0217723826,
          "estimated_diameter_max" : 0.0486845275
        },
        "feet" : {
          "estimated_diameter_min" : 114.9582192654,
          "estimated_diameter_max" : 257.0543928497
        }
      },
      "is_potentially_hazardous_asteroid" : false,
      "close_approach_data" : [ {
        "close_approach_date" : "2001-10-08",
        "epoch_date_close_approach" : 1002524400000,
        "relative_velocity" : {
          "kilometers_per_second" : "12.4732904372",
          "kilometers_per_hour" : "44903.8455738984",
          "miles_per_hour" : "27901.5033789593"
        },
        "miss_distance" : {
          "astronomical" : "0.0064311201",
          "lunar" : "2.5017056465",
          "kilometers" : "962081.875",
          "miles" : "597809.9375"
        },
        "orbiting_body" : "Earth"
      } ],
      "orbital_data" : {
        "orbit_id" : "8",
        "orbit_determination_date" : "2017-04-06 09:16:02",
        "orbit_uncertainty" : "8",
        "minimum_orbit_intersection" : ".0029364",
        "jupiter_tisserand_invariant" : "4.023",
        "epoch_osculation" : "2452188.5",
        "eccentricity" : ".5232022371658681",
        "semi_major_axis" : "1.706252380677213",
        "inclination" : "4.032112471235475",
        "ascending_node_longitude" : "192.4858786104862",
        "orbital_period" : "814.0729652372546",
        "perihelion_distance" : ".8135373179373067",
        "perihelion_argument" : "245.1052136822468",
        "aphelion_distance" : "2.598967443417119",
        "perihelion_time" : "2452234.686341843232",
        "mean_anomaly" : "339.5754388444558",
        "mean_motion" : ".4422208025236179",
        "equinox" : "J2000"
      }
    }, {
      "links" : {
        "self" : "https://api.nasa.gov/neo/rest/v1/neo/3092356?api_key=t0TVs3DtDT2H8Oy2Zy8m2eVrNsAVKAexjcZXUckd"
      },
      "neo_reference_id" : "3092356",
      "name" : "(2001 RX17)",
      "nasa_jpl_url" : "http://ssd.jpl.nasa.gov/sbdb.cgi?sstr=3092356",
      "absolute_magnitude_h" : 20.0,
      "estimated_diameter" : {
        "kilometers" : {
          "estimated_diameter_min" : 0.2658,
          "estimated_diameter_max" : 0.5943468684
        },
        "meters" : {
          "estimated_diameter_min" : 265.8,
          "estimated_diameter_max" : 594.3468684194
        },
        "miles" : {
          "estimated_diameter_min" : 0.1651604118,
          "estimated_diameter_max" : 0.369309908
        },
        "feet" : {
          "estimated_diameter_min" : 872.047272,
          "estimated_diameter_max" : 1949.9569797852
        }
      },
      "is_potentially_hazardous_asteroid" : false,
      "close_approach_data" : [ {
        "close_approach_date" : "2001-10-08",
        "epoch_date_close_approach" : 1002524400000,
        "relative_velocity" : {
          "kilometers_per_second" : "6.6353647713",
          "kilometers_per_hour" : "23887.313176695",
          "miles_per_hour" : "14842.6474569303"
        },
        "miss_distance" : {
          "astronomical" : "0.2671460792",
          "lunar" : "103.9198226929",
          "kilometers" : "39964484",
          "miles" : "24832780"
        },
        "orbiting_body" : "Earth"
      } ],
      "orbital_data" : {
        "orbit_id" : "21",
        "orbit_determination_date" : "2017-04-06 09:16:08",
        "orbit_uncertainty" : "4",
        "minimum_orbit_intersection" : ".242684",
        "jupiter_tisserand_invariant" : "3.172",
        "epoch_osculation" : "2458000.5",
        "eccentricity" : ".5341664651236567",
        "semi_major_axis" : "2.609293475203653",
        "inclination" : "10.44153598083112",
        "ascending_node_longitude" : "167.3196836485923",
        "orbital_period" : "1539.511081323929",
        "perihelion_distance" : "1.215496403083896",
        "perihelion_argument" : "218.5695580895732",
        "aphelion_distance" : "4.00309054732341",
        "perihelion_time" : "2458371.781247691847",
        "mean_anomaly" : "273.1794172899874",
        "mean_motion" : ".2338404733601604",
        "equinox" : "J2000"
      }
    }, {
      "links" : {
        "self" : "https://api.nasa.gov/neo/rest/v1/neo/3409648?api_key=t0TVs3DtDT2H8Oy2Zy8m2eVrNsAVKAexjcZXUckd"
      },
      "neo_reference_id" : "3409648",
      "name" : "(2008 HC2)",
      "nasa_jpl_url" : "http://ssd.jpl.nasa.gov/sbdb.cgi?sstr=3409648",
      "absolute_magnitude_h" : 19.7,
      "estimated_diameter" : {
        "kilometers" : {
          "estimated_diameter_min" : 0.3051792326,
          "estimated_diameter_max" : 0.6824015094
        },
        "meters" : {
          "estimated_diameter_min" : 305.1792325939,
          "estimated_diameter_max" : 682.4015094011
        },
        "miles" : {
          "estimated_diameter_min" : 0.1896295249,
          "estimated_diameter_max" : 0.4240245083
        },
        "feet" : {
          "estimated_diameter_min" : 1001.2442334633,
          "estimated_diameter_max" : 2238.8501681036
        }
      },
      "is_potentially_hazardous_asteroid" : false,
      "close_approach_data" : [ {
        "close_approach_date" : "2001-10-08",
        "epoch_date_close_approach" : 1002524400000,
        "relative_velocity" : {
          "kilometers_per_second" : "31.8134965877",
          "kilometers_per_hour" : "114528.5877156066",
          "miles_per_hour" : "71163.6105169557"
        },
        "miss_distance" : {
          "astronomical" : "0.4275390385",
          "lunar" : "166.3126831055",
          "kilometers" : "63958932",
          "miles" : "39742236"
        },
        "orbiting_body" : "Earth"
      } ],
      "orbital_data" : {
        "orbit_id" : "19",
        "orbit_determination_date" : "2017-04-06 09:03:37",
        "orbit_uncertainty" : "1",
        "minimum_orbit_intersection" : ".340435",
        "jupiter_tisserand_invariant" : "4.768",
        "epoch_osculation" : "2458000.5",
        "eccentricity" : ".5224251735089448",
        "semi_major_axis" : "1.243621829702201",
        "inclination" : "45.50270069631853",
        "ascending_node_longitude" : "211.7984890231639",
        "orbital_period" : "506.560045273876",
        "perihelion_distance" : ".5939224795405174",
        "perihelion_argument" : "143.0152117707682",
        "aphelion_distance" : "1.893321179863885",
        "perihelion_time" : "2457748.296971686085",
        "mean_anomaly" : "179.2346061243765",
        "mean_motion" : ".7106758682583482",
        "equinox" : "J2000"
      }
    }, {
      "links" : {
        "self" : "https://api.nasa.gov/neo/rest/v1/neo/3771022?api_key=t0TVs3DtDT2H8Oy2Zy8m2eVrNsAVKAexjcZXUckd"
      },
      "neo_reference_id" : "3771022",
      "name" : "(2017 EB3)",
      "nasa_jpl_url" : "http://ssd.jpl.nasa.gov/sbdb.cgi?sstr=3771022",
      "absolute_magnitude_h" : 25.0,
      "estimated_diameter" : {
        "kilometers" : {
          "estimated_diameter_min" : 0.02658,
          "estimated_diameter_max" : 0.0594346868
        },
        "meters" : {
          "estimated_diameter_min" : 26.58,
          "estimated_diameter_max" : 59.4346868419
        },
        "miles" : {
          "estimated_diameter_min" : 0.0165160412,
          "estimated_diameter_max" : 0.0369309908
        },
        "feet" : {
          "estimated_diameter_min" : 87.2047272,
          "estimated_diameter_max" : 194.9956979785
        }
      },
      "is_potentially_hazardous_asteroid" : false,
      "close_approach_data" : [ {
        "close_approach_date" : "2001-10-08",
        "epoch_date_close_approach" : 1002524400000,
        "relative_velocity" : {
          "kilometers_per_second" : "15.0539404514",
          "kilometers_per_hour" : "54194.185624986",
          "miles_per_hour" : "33674.1593957031"
        },
        "miss_distance" : {
          "astronomical" : "0.3361725998",
          "lunar" : "130.7711486816",
          "kilometers" : "50290708",
          "miles" : "31249196"
        },
        "orbiting_body" : "Earth"
      } ],
      "orbital_data" : {
        "orbit_id" : "13",
        "orbit_determination_date" : "2017-07-28 06:18:12",
        "orbit_uncertainty" : "5",
        "minimum_orbit_intersection" : ".0126898",
        "jupiter_tisserand_invariant" : "5.888",
        "epoch_osculation" : "2458000.5",
        "eccentricity" : ".1525238163656098",
        "semi_major_axis" : "1.039599809269247",
        "inclination" : "2.837680276308401",
        "ascending_node_longitude" : "25.74093476351028",
        "orbital_period" : "387.1664475217875",
        "perihelion_distance" : ".8810360788665414",
        "perihelion_argument" : "247.7282968531734",
        "aphelion_distance" : "1.198163539671952",
        "perihelion_time" : "2457916.626373325338",
        "mean_anomaly" : "77.98843571324507",
        "mean_motion" : ".9298326399519455",
        "equinox" : "J2000"
      }
    } ]
  }
}